OBJECT_NAME,OBJECT_ID,EPOCH,MEAN_MOTION,ECCENTRICITY,INCLINATION,RA_OF_ASC_NODE,ARG_OF_PERICENTER,MEAN_ANOMALY,EPHEMERIS_TYPE,CLASSIFICATION_TYPE,NORAD_CAT_ID,ELEMENT_SET_NO,REV_AT_EPOCH,BSTAR,MEAN_MOTION_DOT,MEAN_MOTION_DDOT
STARLINK-36796,2026-026B,2026-06-16T16:31:42.185280,15.33453267,.0000825,97.2838,220.8277,169.0260,191.1001,0,U,67722,999,1929,.50727E-3,.16341E-3,0
STARLINK-36369,2026-026C,2026-06-16T16:27:47.095200,15.33458847,.0000759,97.2855,220.8316,162.4304,197.6965,0,U,67723,999,1929,.36396E-3,.11698E-3,0
STARLINK-36752,2026-026D,2026-06-16T16:23:53.729664,15.33428594,.0000335,97.2834,220.8363,174.2666,185.8581,0,U,67724,999,1929,.53541E-3,.1724E-3,0
STARLINK-36754,2026-026E,2026-06-16T16:19:57.123264,15.33453311,.0001127,97.2849,220.8382,231.5294,128.5848,0,U,67725,999,1929,.43395E-3,.13964E-3,0
STARLINK-36755,2026-026F,2026-06-16T16:16:02.172288,15.33456692,.0001267,97.2856,220.8402,272.8573,87.2525,0,U,67726,999,1929,.43862E-3,.14117E-3,0
STARLINK-36741,2026-026G,2026-06-16T16:12:08.260704,15.33447072,.0001172,97.2837,220.8455,104.2919,255.8454,0,U,67727,999,1929,.42777E-3,.13761E-3,0
STARLINK-36757,2026-026H,2026-06-16T16:08:12.661728,15.33452205,.0000843,97.2850,220.8483,143.5148,216.6152,0,U,67728,999,1929,.58806E-3,.18961E-3,0
STARLINK-36751,2026-026J,2026-06-16T20:42:17.487360,15.33442080,.0001903,97.2835,221.0510,83.2415,276.9044,0,U,67729,999,1932,.4907E-3,.15799E-3,0
STARLINK-36747,2026-026K,2026-06-16T17:38:17.200320,15.33470626,.0001281,97.2833,220.9193,70.0340,290.1041,0,U,67730,999,1930,.69362E-3,.22402E-3,0
STARLINK-36315,2026-026L,2026-06-16T20:38:22.214112,15.33447316,.0000235,97.2831,221.0559,129.0990,231.0273,0,U,67731,999,1932,.61159E-3,.19722E-3,0
STARLINK-36260,2026-026M,2026-06-16T17:26:31.155936,15.33449474,.0000325,97.2836,220.9291,146.5367,213.5896,0,U,67732,999,1930,.35661E-3,.11457E-3,0
STARLINK-36746,2026-026N,2026-06-16T17:22:36.336288,15.33455409,.0000733,97.2814,220.9296,105.7744,254.3580,0,U,67733,999,1930,.57172E-3,.18433E-3,0
STARLINK-36749,2026-026P,2026-06-16T17:18:41.493312,15.33453706,.0000878,97.2829,220.9352,101.5529,258.5812,0,U,67734,999,1930,.54981E-3,.17721E-3,0
STARLINK-36691,2026-026Q,2026-06-16T17:10:51.809088,15.33443409,.0000145,97.2817,220.9437,223.5129,136.6102,0,U,67735,999,1930,.46013E-3,.14808E-3,0
STARLINK-36317,2026-026R,2026-06-16T17:14:46.315104,15.33452433,.0000143,97.2821,220.9408,166.1549,193.9698,0,U,67736,999,1930,.65563E-3,.21155E-3,0
STARLINK-36330,2026-026S,2026-06-16T17:06:57.375648,15.33413336,.0001393,97.2837,220.9502,87.2033,272.9369,0,U,67737,999,1930,.4018E-4,.1221E-4,0
STARLINK-36327,2026-026T,2026-06-16T17:03:02.370240,15.33437916,.0000507,97.2829,220.9527,107.1627,252.9671,0,U,67738,999,1930,.30696E-3,.9845E-4,0
STARLINK-36329,2026-026U,2026-06-16T16:39:31.961088,15.33451512,.0000957,97.2845,220.9757,213.5840,146.5342,0,U,67739,999,1930,.49007E-3,.15782E-3,0
STARLINK-36737,2026-026V,2026-06-16T16:59:06.993312,15.33440569,.0000863,97.2834,220.9570,95.0968,265.0373,0,U,67740,999,1930,.42525E-3,.13676E-3,0
STARLINK-36740,2026-026W,2026-06-16T16:43:27.040800,15.33453799,.0000397,97.2848,220.9720,18.2782,341.8475,0,U,67741,999,1930,.5424E-3,.17481E-3,0
STARLINK-36693,2026-026X,2026-06-16T16:55:12.196128,15.33450416,.0001332,97.2811,220.9583,86.2954,273.8441,0,U,67742,999,1930,.50363E-3,.16222E-3,0
STARLINK-36717,2026-026Y,2026-06-16T16:47:22.109280,15.33452453,.0000462,97.2845,220.9687,29.2987,330.8282,0,U,67743,999,1930,.52372E-3,.16874E-3,0
STARLINK-36692,2026-026Z,2026-06-16T16:51:16.953984,15.33450827,.0000332,97.2833,220.9630,97.8415,262.2865,0,U,67744,999,1930,.40328E-3,.12969E-3,0
STARLINK-36800,2026-032A,2026-06-16T19:04:27.219072,15.33442684,.0001637,97.2854,355.6369,88.6334,271.5096,0,U,67797,999,2015,.45093E-3,.1451E-3,0
STARLINK-36798,2026-032B,2026-06-16T18:37:00.981120,15.33449125,.0002206,97.2845,355.5062,97.9865,262.1629,0,U,67798,999,2014,.47701E-3,.15359E-3,0
STARLINK-36804,2026-032C,2026-06-16T19:00:30.331008,15.33455706,.0001369,97.2866,355.4899,93.9766,266.1633,0,U,67799,999,2014,.43699E-3,.14064E-3,0
STARLINK-36354,2026-032D,2026-06-16T18:44:50.582400,15.33460827,.0001362,97.2861,355.5057,63.0211,297.1171,0,U,67800,999,2014,.59691E-3,.19254E-3,0
STARLINK-36773,2026-032E,2026-06-16T18:56:35.470752,15.33453196,.0001309,97.2870,355.4932,91.7630,268.3763,0,U,67801,999,2014,.4367E-3,.14053E-3,0
STARLINK-36739,2026-032F,2026-06-16T18:21:21.211776,15.33443946,.0001614,97.2853,355.5264,93.4182,266.7245,0,U,67802,999,2014,.19142E-3,.611E-4,0
STARLINK-36768,2026-032G,2026-06-16T18:48:45.586944,15.33455785,.0001482,97.2871,355.5020,91.7800,268.3612,0,U,67803,999,2014,.38634E-3,.12422E-3,0
