STARLINK-36796          
1 67722U 26026B   26167.68868270  .00016341  00000+0  50727-3 0  9995
2 67722  97.2838 220.8277 0000825 169.0260 191.1001 15.33453267 19293
STARLINK-36369          
1 67723U 26026C   26167.68596175  .00011698  00000+0  36396-3 0  9994
2 67723  97.2855 220.8316 0000759 162.4304 197.6965 15.33458847 19298
STARLINK-36752          
1 67724U 26026D   26167.68326076  .00017240  00000+0  53541-3 0  9996
2 67724  97.2834 220.8363 0000335 174.2666 185.8581 15.33428594 19299
STARLINK-36754          
1 67725U 26026E   26167.68052226  .00013964  00000+0  43395-3 0  9995
2 67725  97.2849 220.8382 0001127 231.5294 128.5848 15.33453311 19296
STARLINK-36755          
1 67726U 26026F   26167.67780292  .00014117  00000+0  43862-3 0  9996
2 67726  97.2856 220.8402 0001267 272.8573  87.2525 15.33456692 19299
STARLINK-36741          
1 67727U 26026G   26167.67509561  .00013761  00000+0  42777-3 0  9993
2 67727  97.2837 220.8455 0001172 104.2919 255.8454 15.33447072 19290
STARLINK-36757          
1 67728U 26026H   26167.67236877  .00018961  00000+0  58806-3 0  9998
2 67728  97.2850 220.8483 0000843 143.5148 216.6152 15.33452205 19295
STARLINK-36751          
1 67729U 26026J   26167.86270240  .00015799  00000+0  49070-3 0  9991
2 67729  97.2835 221.0510 0001903  83.2415 276.9044 15.33442080 19321
STARLINK-36747          
1 67730U 26026K   26167.73492130  .00022402  00000+0  69362-3 0  9998
2 67730  97.2833 220.9193 0001281  70.0340 290.1041 15.33470626 19306
STARLINK-36315          
1 67731U 26026L   26167.85997933  .00019722  00000+0  61159-3 0  9990
2 67731  97.2831 221.0559 0000235 129.0990 231.0273 15.33447316 19320
STARLINK-36260          
1 67732U 26026M   26167.72674949  .00011457  00000+0  35661-3 0  9992
2 67732  97.2836 220.9291 0000325 146.5367 213.5896 15.33449474 19300
STARLINK-36746          
1 67733U 26026N   26167.72403167  .00018433  00000+0  57172-3 0  9997
2 67733  97.2814 220.9296 0000733 105.7744 254.3580 15.33455409 19309
STARLINK-36749          
1 67734U 26026P   26167.72131358  .00017721  00000+0  54981-3 0  9992
2 67734  97.2829 220.9352 0000878 101.5529 258.5812 15.33453706 19306
STARLINK-36691          
1 67735U 26026Q   26167.71587742  .00014808  00000+0  46013-3 0  9994
2 67735  97.2817 220.9437 0000145 223.5129 136.6102 15.33443409 19303
STARLINK-36317          
1 67736U 26026R   26167.71859161  .00021155  00000+0  65563-3 0  9996
2 67736  97.2821 220.9408 0000143 166.1549 193.9698 15.33452433 19306
STARLINK-36330          
1 67737U 26026S   26167.71316407  .00001221  00000+0  40180-4 0  9999
2 67737  97.2837 220.9502 0001393  87.2033 272.9369 15.33413336 19300
STARLINK-36327          
1 67738U 26026T   26167.71044410  .00009845  00000+0  30696-3 0  9992
2 67738  97.2829 220.9527 0000507 107.1627 252.9671 15.33437916 19300
STARLINK-36329          
1 67739U 26026U   26167.69411992  .00015782  00000+0  49007-3 0  9996
2 67739  97.2845 220.9757 0000957 213.5840 146.5342 15.33451512 19303
STARLINK-36737          
1 67740U 26026V   26167.70771983  .00013676  00000+0  42525-3 0  9997
2 67740  97.2834 220.9570 0000863  95.0968 265.0373 15.33440569 19307
STARLINK-36740          
1 67741U 26026W   26167.69684075  .00017481  00000+0  54240-3 0  9996
2 67741  97.2848 220.9720 0000397  18.2782 341.8475 15.33453799 19308
STARLINK-36693          
1 67742U 26026X   26167.70500227  .00016222  00000+0  50363-3 0  9999
2 67742  97.2811 220.9583 0001332  86.2954 273.8441 15.33450416 19302
STARLINK-36717          
1 67743U 26026Y   26167.69956145  .00016874  00000+0  52372-3 0  9997
2 67743  97.2845 220.9687 0000462  29.2987 330.8282 15.33452453 19301
STARLINK-36692          
1 67744U 26026Z   26167.70227956  .00012969  00000+0  40328-3 0  9990
2 67744  97.2833 220.9630 0000332  97.8415 262.2865 15.33450827 19308
STARLINK-36800          
1 67797U 26032A   26167.79475948  .00014510  00000+0  45093-3 0  9998
2 67797  97.2854 355.6369 0001637  88.6334 271.5096 15.33442684 20157
STARLINK-36798          
1 67798U 26032B   26167.77570580  .00015359  00000+0  47701-3 0  9995
2 67798  97.2845 355.5062 0002206  97.9865 262.1629 15.33449125 20146
STARLINK-36804          
1 67799U 26032C   26167.79201772  .00014064  00000+0  43699-3 0  9996
2 67799  97.2866 355.4899 0001369  93.9766 266.1633 15.33455706 20143
STARLINK-36354          
1 67800U 26032D   26167.78114100  .00019254  00000+0  59691-3 0  9991
2 67800  97.2861 355.5057 0001362  63.0211 297.1171 15.33460827 20145
STARLINK-36773          
1 67801U 26032E   26167.78929943  .00014053  00000+0  43670-3 0  9993
2 67801  97.2870 355.4932 0001309  91.7630 268.3763 15.33453196 20149
STARLINK-36739          
1 67802U 26032F   26167.76482884  .00006110  00000+0  19142-3 0  9992
2 67802  97.2853 355.5264 0001614  93.4182 266.7245 15.33443946 20149
STARLINK-36768          
1 67803U 26032G   26167.78386096  .00012422  00000+0  38634-3 0  9993
2 67803  97.2871 355.5020 0001482  91.7800 268.3612 15.33455785 20141
